[{"OBJECT_NAME":"STARLINK-1231","OBJECT_ID":"2020-012AL","EPOCH":"2026-03-09T22:37:47.053344","MEAN_MOTION":15.21109103,"ECCENTRICITY":0.00044424,"INCLINATION":53.0512,"RA_OF_ASC_NODE":14.6305,"ARG_OF_PERICENTER":85.7688,"MEAN_ANOMALY":274.3815,"EPHEMERIS_TYPE":0,"CLASSIFICATION_TYPE":"U","NORAD_CAT_ID":45212,"ELEMENT_SET_NO":999,"REV_AT_EPOCH":33526,"BSTAR":0.0021253625,"MEAN_MOTION_DOT":0.00047876,"MEAN_MOTION_DDOT":0},{"OBJECT_NAME":"HOTSAT-1","OBJECT_ID":"2023-084Y","EPOCH":"2026-03-09T22:00:57.183264","MEAN_MOTION":15.22033615,"ECCENTRICITY":3.707e-5,"INCLINATION":97.6057,"RA_OF_ASC_NODE":201.9858,"ARG_OF_PERICENTER":39.1931,"MEAN_ANOMALY":320.9331,"EPHEMERIS_TYPE":0,"CLASSIFICATION_TYPE":"U","NORAD_CAT_ID":56954,"ELEMENT_SET_NO":999,"REV_AT_EPOCH":15199,"BSTAR":0.00029593923,"MEAN_MOTION_DOT":6.692e-5,"MEAN_MOTION_DDOT":0}]
